OPS 6582 (TRANSIT 5B-5) 
1 00965U 64083D   22110.51138118  .00000052  00000+0  59341-4 0  9997
2 00965  90.0307 195.2624 0042165  40.8528 330.3616 13.56774948837661
OSCAR 7 (AO-7)          
1 07530U 74089B   22110.49652630 -.00000039  00000+0  41025-4 0  9992
2 07530 101.9010  90.1927 0012357 151.3508 325.0740 12.53654239170209
UOSAT 2 (UO-11)         
1 14781U 84021B   22110.44951134  .00000863  00000+0  11078-3 0  9999
2 14781  97.6155 100.5408 0009252 143.6665 216.5179 14.83559358 31447
NOAA 9                  
1 15427U 84123A   22110.45648684  .00000112  00000+0  80030-4 0  9996
2 15427  99.0405  81.9466 0014432 333.7251 136.5474 14.16185508928402
LUSAT (LO-19)           
1 20442U 90005G   22110.42904926  .00000127  00000+0  63184-4 0  9993
2 20442  98.7886  74.4222 0011447 344.8658  15.2182 14.33043123684793
ITAMSAT (IO-26)         
1 22826U 93061D   22110.83342862  .00000080  00000+0  48362-4 0  9995
2 22826  98.8876 140.5191 0008605 199.7706 160.3143 14.30502993490420
RADIO ROSTO (RS-15)     
1 23439U 94085A   22110.57095603 -.00000037  00000+0  15882-3 0  9995
2 23439  64.8115 239.2313 0167314 282.4687  75.7562 11.27571345124960
JAS-2 (FO-29)           
1 24278U 96046B   22110.53669586 -.00000036  00000+0 -29414-5 0  9997
2 24278  98.5229 142.1744 0351321  73.6374 290.3087 13.53113288267771
NOAA 15                 
1 25338U 98030A   22110.74848787  .00000159  00000+0  84607-4 0  9993
2 25338  98.6503 141.0227 0011572 105.0891 255.1570 14.26110990245044
TECHSAT 1B (GO-32)      
1 25397U 98043D   22110.59110834  .00000069  00000+0  50008-4 0  9998
2 25397  98.8126  60.9232 0000245 314.3530  45.7629 14.23744669235193
ISS (ZARYA)             
1 25544U 98067A   22110.93907675  .00008630  00000+0  15810-3 0  9996
2 25544  51.6442 260.1182 0005103  39.7983  41.8138 15.50163375336308
ORSTED                  
1 25635U 99008B   22110.39078589  .00000364  00000+0  93688-4 0  9992
2 25635  96.4685 348.8664 0138615   7.3788 352.9406 14.48433587221873
PHASE 3D (AO-40)        
1 26609U 00072B   22104.08395477 -.00000016  00000+0  00000+0 0  9990
2 26609   7.4349 282.4909 7984662 355.1256   0.1941  1.25588338 98347
PCSAT (NO-44)           
1 26931U 01043C   22110.56913628  .00000114  00000+0  75335-4 0  9997
2 26931  67.0516 207.8029 0007876 271.7231  88.2969 14.30685308 73120
SAUDISAT 1C (SO-50)     
1 27607U 02058C   22110.39477797  .00000806  00000+0  13207-3 0  9995
2 27607  64.5531 119.5552 0074951 305.9039  53.5121 14.76015703 39802
CUTE-1 (CO-55)          
1 27844U 03031E   22110.46497259  .00000233  00000+0  12421-3 0  9994
2 27844  98.6811 119.0232 0008624 270.1234  89.8955 14.22417068975625
CUBESAT XI-IV (CO-57)   
1 27848U 03031J   22110.48035422  .00000193  00000+0  10703-3 0  9996
2 27848  98.6857 119.5692 0008563 286.0610  73.9624 14.21978746975441
MOZHAYETS 4 (RS-22)     
1 27939U 03042A   22110.77514105  .00000850  00000+0  15939-3 0  9997
2 27939  98.1829 251.5421 0013437  36.0041 324.2070 14.67253876992581
INMARSAT 4-F1           
1 28628U 05009A   22110.55508514 -.00000263  00000+0  00000+0 0  9999
2 28628   3.5725  34.4513 0003349   9.5677 147.9307  1.00271373 62444
NOAA 18                 
1 28654U 05018A   22110.76773623  .00000194  00000+0  12845-3 0  9992
2 28654  98.9524 181.2421 0015203 132.4426 227.8034 14.12715491871924
CUBESAT XI-V            
1 28895U 05043F   22110.29866134  .00000941  00000+0  18746-3 0  9991
2 28895  98.0968 242.6082 0015811 328.0271  31.9971 14.64215192878904
METOP-A                 
1 29499U 06044A   22110.60018830  .00000944  00000+0  13408-3 0  9994
2 29499  98.4571 153.3586 0198367 189.0429 276.7010 14.67052256805045
CARTOSAT-2 (IRS-P7)     
1 29710U 07001B   22110.53245548  .00015120  00000+0  40099-3 0  9992
2 29710  97.8613 212.7741 0156998 260.0140  98.3348 15.26791599827398
FALCONSAT-3             
1 30776U 07006E   22110.53703498  .00035583  00000+0  63336-3 0  9998
2 30776  35.4319 278.5237 0000793 322.9036  37.1640 15.49129178840581
CAPE-1                  
1 31130U 07012P   22110.55379123  .00000915  00000+0  20151-3 0  9995
2 31130  98.2655  51.5431 0096593 112.3534 248.7936 14.56974073796664
CARTOSAT-2A             
1 32783U 08021A   22110.76431712  .00000535  00000+0  80039-4 0  9997
2 32783  97.9700 171.5622 0012517   0.8516 359.2689 14.78674405754494
CUTE-1.7+APD II (CO-65) 
1 32785U 08021C   22110.79051976  .00002429  00000+0  26131-3 0  9998
2 32785  97.6530  83.4936 0014363  68.2117 292.0627 14.89324348757971
COMPASS-1               
1 32787U 08021E   22110.44165318  .00005009  00000+0  45916-3 0  9997
2 32787  97.5603  94.4561 0011364 351.4647   8.6379 14.95289262759386
AAUSAT-II               
1 32788U 08021F   22110.49402116  .00005001  00000+0  44012-3 0  9991
2 32788  97.5313  97.8938 0010032 325.0834  34.9729 14.96898890759763
DELFI-C3 (DO-64)        
1 32789U 08021G   22110.35126904  .00012069  00000+0  70104-3 0  9998
2 32789  97.3448 138.7982 0012032 157.2232 202.9535 15.12189696763149
SEEDS II (CO-66)        
1 32791U 08021J   22109.91405984  .00003074  00000+0  30594-3 0  9994
2 32791  97.6080  88.2067 0013791  32.3820 327.8243 14.92279564758462
YUBILEINY (RS-30)       
1 32953U 08025A   22110.75317350  .00000021  00000+0  80971-4 0  9995
2 32953  82.5049 219.8003 0019458  30.0431 330.1763 12.43108846631160
FENGYUN 3A              
1 32958U 08026A   22110.49515723  .00000117  00000+0  76483-4 0  9995
2 32958  98.4972  75.5135 0008546 183.1363 176.9761 14.18704793720002
PRISM (HITOMI)          
1 33493U 09002B   22110.49153789  .00006165  00000+0  51097-3 0  9997
2 33493  98.2273  93.7836 0013012   0.4247 359.6983 14.99168238720299
STARS (KUKAI)           
1 33498U 09002G   22110.50891438  .00001466  00000+0  20188-3 0  9990
2 33498  98.1757   1.5149 0012187  79.5545 280.7039 14.79797514712867
KKS-1 (KISEKI)          
1 33499U 09002H   22110.82188294  .00000754  00000+0  11743-3 0  9991
2 33499  98.2260 351.8906 0009923 133.5284 226.6751 14.75911183712175
NOAA 19                 
1 33591U 09005A   22110.83326771  .00000143  00000+0  10226-3 0  9999
2 33591  99.1544 143.7425 0013662 354.1887   5.9123 14.12551386680319
SWISSCUBE               
1 35932U 09051B   22110.54529907  .00000645  00000+0  15511-3 0  9994
2 35932  98.5761 324.8476 0006661 218.8943 141.1775 14.56772720667666
BEESAT-1                
1 35933U 09051C   22110.50121035  .00000566  00000+0  13728-3 0  9991
2 35933  98.5705 326.4698 0004690 231.7312 128.3463 14.56800750667737
ITUPSAT1                
1 35935U 09051E   22110.55205770  .00000505  00000+0  12606-3 0  9994
2 35935  98.5807 326.5927 0006984 236.9976 123.0550 14.55916771667480
XIWANG-1 (HOPE-1)       
1 36122U 09072B   22110.43265147 -.00000029  00000+0  35603-4 0  9992
2 36122 100.1781  83.9361 0008116 112.5848 247.6125 13.16367709593174
CARTOSAT-2B             
1 36795U 10035A   22110.73492463  .00000598  00000+0  88623-4 0  9995
2 36795  97.9659 171.7160 0015022  73.0196 287.2655 14.78676093635534
TISAT 1                 
1 36799U 10035E   22110.26849736  .00002781  00000+0  27638-3 0  9990
2 36799  98.1890 318.4142 0010552 289.7191  70.2889 14.92550784639089
FENGYUN 3B              
1 37214U 10059A   22110.83369192 -.00000002  00000+0  23125-4 0  9998
2 37214  99.0937 115.7816 0022652 155.2633 204.9631 14.14250081592813
JUGNU                   
1 37839U 11058B   22110.48664017  .00000400  00000+0  70964-4 0  9990
2 37839  19.9600 167.0562 0018678 237.5105 152.3175 14.12768258543939
SRMSAT                  
1 37841U 11058D   22110.54922869  .00000403  00000+0  76295-4 0  9998
2 37841  19.9713 244.9257 0012003  67.7125   9.7668 14.10741301543057
M-CUBED & EXP-1 PRIME   
1 37855U 11061F   22110.45238050  .00011284  00000+0  51110-3 0  9996
2 37855 101.7036 198.9806 0158402 235.9013 122.7085 15.10644227572474
HORYU-2                 
1 38340U 12025D   22110.47240369  .00001398  00000+0  20841-3 0  9997
2 38340  98.1962 188.0053 0012390  58.1292 302.1121 14.76457574523686
METOP-B                 
1 38771U 12049A   22110.83579458  .00000086  00000+0  59208-4 0  9998
2 38771  98.7012 171.4254 0001006 144.1282 267.0468 14.21494768497546
SARAL                   
1 39086U 13009A   22110.60707280  .00000068  00000+0  41595-4 0  9996
2 39086  98.5478 297.1060 0002301  85.6320 274.5126 14.32031516478208
AAUSAT 3                
1 39087U 13009B   22110.79620573  .00000494  00000+0  18402-3 0  9999
2 39087  98.4046 311.7977 0013474  78.7577 281.5113 14.36114108479308
STRAND-1                
1 39090U 13009E   22110.50726889  .00000189  00000+0  80904-4 0  9997
2 39090  98.4089 310.1440 0010336  84.8580 275.3785 14.35272037479089
BRITE-AUSTRIA           
1 39091U 13009F   22110.77003796  .00000152  00000+0  68037-4 0  9995
2 39091  98.4102 309.5613 0011699  90.1668 270.0858 14.35251896479162
UNIBRITE                
1 39092U 13009G   22110.78649877  .00000127  00000+0  59312-4 0  9991
2 39092  98.4135 309.3294 0010608  85.8806 274.3592 14.35122814479121
SOMP                    
1 39134U 13015E   22110.49691062  .00016078  00000+0  60683-3 0  9990
2 39134  64.8625 251.8534 0033237 289.2311  70.5224 15.26672445498008
BEESAT-3                
1 39135U 13015F   22110.48449035  .00010942  00000+0  47049-3 0  9996
2 39135  64.8666 286.6278 0034653 297.4309  62.3297 15.22501490497281
BEESAT-2                
1 39136U 13015G   22110.23428338  .00009902  00000+0  44409-3 0  9994
2 39136  64.8751 295.2558 0012199 288.8224  71.1581 15.21604207497053
NEE-01 PEGASO           
1 39151U 13018B   22110.53708202  .00001425  00000+0  19140-3 0  9994
2 39151  97.9852 216.4257 0018195  84.2352 276.0934 14.80763657485113
CUBEBUG-1 (CAPITAN BETO)
1 39153U 13018D   22110.56359141  .00001704  00000+0  22402-3 0  9998
2 39153  98.0059 220.6616 0017966  79.1929 281.1304 14.81427095485189
